JAS-2 (FO-29)           
1 24278U 96046B   25110.69874112  .00000000  00000+0  33560-4 0  9995
2 24278  98.5808  11.1468 0350869 111.7655 252.1207 13.53244494416022
JB-3 3 (ZY 2C)          
1 28470U 04044A   25111.49356255  .00006920  00000+0  36756-3 0  9998
2 28470  97.2301 278.1542 0035026 252.9972 106.7421 15.15076478123861
JCSAT-5A                
1 29045U 06010A   25110.88725275 -.00000324  00000+0  00000+0 0  9998
2 29045   0.1033  87.5475 0001648 326.5445 246.5957  1.00271050 69530
JCSAT-3A                
1 29272U 06033A   25110.88725275 -.00000341  00000+0  00000+0 0  9994
2 29272   0.0125 215.4696 0002331 197.9714 243.1834  1.00270177 43504
JCSAT-12 (JCSAT-RA)     
1 35755U 09044A   25111.48701619 -.00000324  00000+0  00000+0 0  9996
2 35755   0.0336  73.1934 0001224 243.9491 200.0580  1.00270730 57431
JUGNU                   
1 37839U 11058B   25111.00385787  .00000642  00000+0  19594-3 0  9995
2 37839  19.9623 352.9462 0018692  94.5060  33.3973 14.13578900699328
JCSAT-13                
1 38331U 12023A   25111.48545235 -.00000353  00000+0  00000+0 0  9992
2 38331   0.0163 220.9015 0002576 201.8565  85.8132  1.00267988 47342
JILIN-1                 
1 40961U 15057D   25111.50272133  .00001615  00000+0  23401-3 0  9996
2 40961  97.6521 127.1868 0016899 190.1732 169.9140 14.77275546513334
JASON-3                 
1 41240U 16002A   25111.55433894 -.00000014  00000+0  20621-3 0  9990
2 41240  66.0409 291.0825 0007631 272.0591  87.9550 12.80930579433130
JCSAT-2B                
1 41471U 16028A   25111.50947507 -.00000162  00000+0  00000+0 0  9999
2 41471   0.0136 239.3447 0001069 162.1432 145.7604  1.00270274 32865
JCSAT-16                
1 41729U 16050A   25110.91819503 -.00000247  00000+0  00000+0 0  9992
2 41729   0.0173 230.6367 0002143 210.6763 242.4322  1.00270361 31832
JCSAT-110A (JCSAT-15)   
1 41903U 16082A   25110.91141836 -.00000347  00000+0  00000+0 0  9999
2 41903   0.0179 234.7772 0000739 180.0001 232.6479  1.00270498 30521
JILIN-1 03              
1 41914U 17002B   25111.48850721  .00015598  00000+0  53396-3 0  9990
2 41914  97.2040 123.0519 0005430 238.7697 121.3013 15.30300182457143
JILIN-1 04              
1 43022U 17074A   25111.52484360  .00015394  00000+0  51965-3 0  9992
2 43022  97.4742 209.2889 0004012 252.5019 107.5783 15.30770514409530
JILIN-1 05              
1 43023U 17074B   25111.53267415  .00009334  00000+0  34676-3 0  9991
2 43023  97.4773 209.3205 0004274 283.7330  76.3433 15.27765445409505
JILIN-1 06              
1 43024U 17074C   25111.50292628  .00013252  00000+0  51365-3 0  9991
2 43024  97.4745 206.9074 0006516 295.7851  64.2714 15.26251818409358
JILIN-1 07              
1 43159U 18008E   25111.51788545  .00011437  00000+0  43323-3 0  9995
2 43159  97.2121 139.2157 0011596 120.7902 239.4480 15.26997146400494
JILIN-1 08              
1 43160U 18008F   25111.52977798  .00010989  00000+0  42310-3 0  9994
2 43160  97.2137 138.8444 0008766 130.7564 229.4438 15.26492572400470
JY1SAT (JO-97)          
1 43803U 18099AX  25111.15246247  .00014590  00000+0  68994-3 0  9993
2 43803  97.4713 170.7038 0006184 325.1322  34.9507 15.19470001349264
JILIN-1 09              
1 43943U 19005B   25111.49770041  .00008823  00000+0  46992-3 0  9993
2 43943  97.4769 206.5238 0004496 115.4927 244.6771 15.15436019345171
JILIN-1 10              
1 43946U 19005E   25111.51354396  .00010090  00000+0  47913-3 0  9993
2 43946  97.4772 207.3785 0007715 323.2563  36.8142 15.19410922345156
JILIN-1 GAOFEN 3A       
1 44312U 19032C   25111.50989842  .00013631  00000+0  60050-3 0  9991
2 44312  44.9803 137.5399 0011767  38.3416 321.8299 15.21765274323460
JILIN-1 GAOFEN 2A       
1 44777U 19075A   25111.50211788  .00017143  00000+0  65207-3 0  9991
2 44777  97.5342 183.7061 0010066 138.0422 222.1590 15.26791532300296
JILIN-1 GAOFEN 2B       
1 44836U 19086A   25111.53177230  .00010316  00000+0  55329-3 0  9994
2 44836  97.5337 181.8996 0015226 338.9937  21.0668 15.15056842296547
JCSAT-18 (KACIFIC 1)    
1 44868U 19091A   25111.19955657 -.00000197  00000+0  00000+0 0  9993
2 44868   0.0129 309.1275 0000138  55.4797  66.7529  1.00270373 19862
JILIN-1 KUANFU 01       
1 45016U 20003A   25111.46103634  .00006811  00000+0  41040-3 0  9995
2 45016  97.5423 187.7158 0007703  74.8842 285.3240 15.11076683291672
JCSAT-17                
1 45245U 20013A   25111.51503001 -.00000317  00000+0  00000+0 0  9991
2 45245   5.4576 352.7308 0003294  26.2862 152.2080  1.00270613 19010
JILIN-1 GAOFEN 3B       
1 46454U 20065A   25111.52311232  .00036380  00000+0  87771-3 0  9997
2 46454  97.2905 159.4284 0005094 193.6279 166.4831 15.41112114254680
JILIN-1 GAOFEN 3C       
1 46455U 20065B   25111.52143207  .00043807  00000+0  92011-3 0  9998
2 46455  97.2863 159.1825 0002732 185.0231 175.0991 15.45220222254734
JILIN-1 GAOFEN 3D       
1 46456U 20065C   25111.53892344  .00052430  00000+0  10216-2 0  9991
2 46456  97.2932 161.9291 0004238 203.2854 156.8204 15.47367083254785
JILIN-1 GAOFEN 3E       
1 46457U 20065D   25111.54825766  .00027032  00000+0  80211-3 0  9990
2 46457  97.2920 158.3767 0020588 255.0340 104.8624 15.34571930254606
JILIN-1 GAOFEN 3F       
1 46458U 20065E   25111.50657217  .00025837  00000+0  78097-3 0  9991
2 46458  97.2855 156.7690 0022429 241.1248 118.7744 15.33956229254592
JILIN-1 GAOFEN 3G       
1 46459U 20065F   25111.50981762  .00029972  00000+0  85093-3 0  9995
2 46459  97.2966 160.3636 0023590 149.3961 210.8665 15.35868233254650
JILIN-1 GAOFEN 3H       
1 46460U 20065G   25111.53357497  .00030967  00000+0  88738-3 0  9997
2 46460  97.2879 157.7907 0015073  87.0739 273.2230 15.35739560254644
JILIN-1 GAOFEN 3I       
1 46461U 20065H   25111.54854120  .00035771  00000+0  91324-3 0  9997
2 46461  97.2948 160.3810 0022040 183.9203 176.1873 15.39152220254683
JILIN-1 GAOFEN 3J       
1 46462U 20065J   25111.54757825  .00036808  00000+0  91429-3 0  9990
2 46462  97.2909 159.4946 0005367 204.1949 155.9046 15.40222780254695
JILIN-1 KUANFU-01B      
1 49003U 21061A   25111.55079965  .00006652  00000+0  40214-3 0  9994
2 49003  97.5573 189.4416 0003992  66.1826 293.9822 15.10984026209720
JILIN-1 GAOFEN 3D01     
1 49004U 21061B   25111.54198663  .00064605  00000+0  11983-2 0  9993
2 49004  97.3501 184.0337 0009926  51.1348 309.0786 15.48692212211027
JILIN-1 GAOFEN 3D02     
1 49005U 21061C   25111.54483986  .00042701  00000+0  10012-2 0  9994
2 49005  97.3475 177.5336 0004577 178.9486 181.1771 15.41942696210605
JILIN-1 GAOFEN 3D03     
1 49006U 21061D   25111.52857116  .00039157  00000+0  99374-3 0  9993
2 49006  97.3476 176.7713 0008162 171.9465 188.1913 15.39534940210556
JILIN-1 GAOFEN 2D       
1 49256U 21086A   25111.52292436  .00009298  00000+0  63659-3 0  9995
2 49256  97.6039 232.4220 0038349 142.6938 217.6964 15.05695362197168
JILIN-1 GAOFEN 2F       
1 49338U 21097A   25111.53936177  .00008322  12476-7  58514-3 0  9995
2 49338  97.6339 236.5079 0018502 235.8168 124.1305 15.05012757190039
JILIN-1 GAOFEN 03D14    
1 51831U 22019H   25111.52838069  .00038617  00000+0  10095-2 0  9994
2 51831  97.3979 190.7822 0010688 204.1230 155.9516 15.38604894174516
JILIN-1 GAOFEN 03D16    
1 51834U 22019L   25111.48211532  .00037646  00000+0  95185-3 0  9997
2 51834  97.3954 191.0936 0007798 203.0403 157.0494 15.39660855174530
JILIN-1 GAOFEN 03D11    
1 51835U 22019M   25111.53673931  .00036808  00000+0  96873-3 0  9993
2 51835  97.3990 191.0005 0006189 217.4798 142.6016 15.38445584174525
JILIN-1 GAOFEN 03D17    
1 51838U 22019Q   25111.51394534  .00119149  00000+0  13383-2 0  9997
2 51838  97.3976 196.8317 0007421 195.0411 165.0627 15.62200868174915
JILIN-1 GAOFEN 03D15    
1 51839U 22019R   25111.48593358  .00033481  00000+0  91714-3 0  9998
2 51839  97.3964 190.4475 0004375 235.2661 124.8171 15.37236518174502
JILIN-1 GAOFEN 03D10    
1 51840U 22019S   25111.48497095  .00036358  00000+0  95657-3 0  9997
2 51840  97.3968 191.0591 0003247 138.9374 221.2115 15.38472207174521
JILIN-1 GAOFEN 03D12    
1 51841U 22019T   25111.50524938  .00036852  00000+0  10100-2 0  9996
2 51841  97.3950 190.4067 0005272 178.9095 181.2162 15.37195702174504
JILIN-1 GAOFEN 03D18    
1 51844U 22019W   25111.49203550  .00037871  00000+0  99809-3 0  9997
2 51844  97.3945 190.3261 0011289 203.2600 156.8136 15.38351757174408
JILIN-1 GAOFEN 03D13    
1 51846U 22019Y   25111.52551334  .00034077  00000+0  95943-3 0  9999
2 51846  97.3945 190.2433 0005292 227.2472 132.8328 15.36373643174425
JILIN-1 GAOFEN 4A       
1 52388U 22046A   25111.49675661  .00063643  00000+0  13425-2 0  9992
2 52388  97.4826 207.6554 0007635  94.6362 265.5758 15.44975055164929
JILIN-1 GAOFEN 3D04     
1 52389U 22046B   25111.51033226  .00039333  00000+0  10798-2 0  9990
2 52389  97.4904 208.5112 0005789 132.3891 227.7844 15.37127082164952
JILIN-1 GAOFEN 3D05     
1 52390U 22046C   25111.49385370  .00040400  00000+0  10810-2 0  9991
2 52390  97.4815 207.7738 0001147 146.1241 214.0077 15.37932522164978
JILIN-1 GAOFEN 3D06     
1 52391U 22046D   25111.52207636  .00039572  00000+0  10633-2 0  9995
2 52391  97.4995 209.9326 0002711 125.1161 235.0338 15.37804324164983
JILIN-1 GAOFEN 3D07     
1 52392U 22046E   25111.54106155  .00051091  00000+0  11455-2 0  9995
2 52392  97.4904 210.3486 0001805 179.0956 181.0295 15.43251147165080
JILIN-1 KUANFU 01C      
1 52443U 22048A   25111.49681770  .00007556  00000+0  45249-3 0  9995
2 52443  97.5604 189.9478 0012335 336.2648  23.8011 15.11230729163559
JILIN-1 GAOFEN 3D27     
1 52444U 22048B   25111.54888495  .00032568  00000+0  99689-3 0  9993
2 52444  97.5703 200.2849 0011084 129.6608 230.5613 15.33702683164226
JILIN-1 GAOFEN 3D28     
1 52445U 22048C   25111.49667573  .00033565  00000+0  10128-2 0  9998
2 52445  97.5671 199.9709 0009524 143.9805 216.2081 15.34166873164220
